STARLINK-32176          
1 60340U 24136M   26068.29145985 -.00000185  00000+0  58667-5 0  9995
2 60340  53.1602  77.5090 0001298  84.4689 275.6460 15.30192295 90779
SCS-01 D                
1 63985U 25100D   26068.75607686  .00032471  00000+0  10528-2 0  9990
2 63985  97.3730 145.4097 0006346 266.2302  93.8214 15.31902149 45621
